[
    {
        "Altitude(m)": 624790.7888869421,
        "Argument of Periapsis(deg)": 0.0,
        "Eccentricity": 0.0,
        "Inclination(deg)": 60.0,
        "Latitude(deg)": -59.14709687026834,
        "Longitude(deg)": 161.03446034583368,
        "Mean Anomaly(deg)": -81.8182,
        "RAAN(deg)": 335.0,
        "Satellite Name": "Test1 1491",
        "Satellite Number": 1491,
        "Semi-Major Axis(m)": 6980739.136638005,
        "Time(s)": 0
    },
    {
        "Altitude(m)": 624737.4445039915,
        "Argument of Periapsis(deg)": 0.00010418945913296404,
        "Eccentricity": 0.0,
        "Inclination(deg)": 60.0,
        "Latitude(deg)": -58.99455372230557,
        "Longitude(deg)": 162.15396267895994,
        "Mean Anomaly(deg)": -81.19809385453816,
        "RAAN(deg)": 334.99957995086027,
        "Satellite Name": "Test1 1491",
        "Satellite Number": 1491,
        "Semi-Major Axis(m)": 6980739.136638005,
        "Time(s)": 10
    }
]